{"type": "FeatureCollection", "features": [ {"type": "Feature", "properties": {"norad_id": 30320, "name": "FENGYUN 1C DEB", "group": "fengyun-1c-debris", "lat": -40.8696062672194, "lon": 63.22497424143205, "alt_km": 864.5395455705248, "timestamp": "2025-12-21T20:41:08.236696+00:00", "meta": {"OBJECT_NAME": "FENGYUN 1C DEB", "OBJECT_ID": "1999-025AAH", "EPOCH": "2025-12-21T00:50:57.081696", "MEAN_MOTION": 13.98558951, "ECCENTRICITY": 0.00849356, "INCLINATION": 99.1863, "RA_OF_ASC_NODE": 54.3481, "ARG_OF_PERICENTER": 271.6751, "MEAN_ANOMALY": 207.0684, "EPHEMERIS_TYPE": 0, "CLASSIFICATION_TYPE": "U", "NORAD_CAT_ID": 30320, "ELEMENT_SET_NO": 999, "REV_AT_EPOCH": 96523, "BSTAR": 0.00018762828, "MEAN_MOTION_DOT": 2.31e-06, "MEAN_MOTION_DDOT": 0}, "tle": {"line1": "1 30320U 99025AAH 25355.03538289  .00000231  00000+0  18763-3 0  9994", "line2": "2 30320  99.1863  54.3481 0084935 271.6751 207.0684 13.98558951965235"}}, "geometry": {"type": "Point", "coordinates": [63.22497424143205, -40.8696062672194]}}, {"type": "Feature", "properties": {"norad_id": 30321, "name": "FENGYUN 1C DEB", "group": "fengyun-1c-debris", "lat": -62.4284970940663, "lon": 157.68743742929308, "alt_km": 807.4643309892863, "timestamp": "2025-12-21T20:41:08.236705+00:00", "meta": {"OBJECT_NAME": "FENGYUN 1C DEB", "OBJECT_ID": "1999-025AAJ", "EPOCH": "2025-12-20T21:49:18.316128", "MEAN_MOTION": 14.16650049, "ECCENTRICITY": 0.0060243, "INCLINATION": 98.6564, "RA_OF_ASC_NODE": 353.7236, "ARG_OF_PERICENTER": 213.0381, "MEAN_ANOMALY": 214.4666, "EPHEMERIS_TYPE": 0, "CLASSIFICATION_TYPE": "U", "NORAD_CAT_ID": 30321, "ELEMENT_SET_NO": 999, "REV_AT_EPOCH": 97659, "BSTAR": 0.00022574, "MEAN_MOTION_DOT": 4.16e-06, "MEAN_MOTION_DDOT": 0}, "tle": {"line1": "1 30321U 99025AAJ 25354.90923977  .00000416  00000+0  22574-3 0  9992", "line2": "2 30321  98.6564 353.7236 0060243 213.0381 214.4666 14.16650049976592"}}, "geometry": {"type": "Point", "coordinates": [157.68743742929308, -62.4284970940663]}}, {"type": "Feature", "properties": {"norad_id": 30322, "name": "FENGYUN 1C DEB", "group": "fengyun-1c-debris", "lat": -81.59511418396771, "lon": -58.184538091512344, "alt_km": 812.4381149035607, "timestamp": "2025-12-21T20:41:08.236714+00:00", "meta": {"OBJECT_NAME": "FENGYUN 1C DEB", "OBJECT_ID": "1999-025AAK", "EPOCH": "2025-12-21T02:19:34.888512", "MEAN_MOTION": 14.06131981, "ECCENTRICITY": 0.01264853, "INCLINATION": 98.3982, "RA_OF_ASC_NODE": 212.1883, "ARG_OF_PERICENTER": 229.2511, "MEAN_ANOMALY": 129.7624, "EPHEMERIS_TYPE": 0, "CLASSIFICATION_TYPE": "U", "NORAD_CAT_ID": 30322, "ELEMENT_SET_NO": 999, "REV_AT_EPOCH": 96317, "BSTAR": 0.00092721534, "MEAN_MOTION_DOT": 1.598e-05, "MEAN_MOTION_DDOT": 0}, "tle": {"line1": "1 30322U 99025AAK 25355.09693158  .00001598  00000+0  92722-3 0  9993", "line2": "2 30322  98.3982 212.1883 0126485 229.2511 129.7624 14.06131981963175"}}, "geometry": {"type": "Point", "coordinates": [-58.184538091512344, -81.59511418396771]}}, {"type": "Feature", "properties": {"norad_id": 30325, "name": "FENGYUN 1C DEB", "group": "fengyun-1c-debris", "lat": 36.752793757685595, "lon": 8.339864338760853, "alt_km": 870.8264844898104, "timestamp": "2025-12-21T20:41:08.236723+00:00", "meta": {"OBJECT_NAME": "FENGYUN 1C DEB", "OBJECT_ID": "1999-025AAL", "EPOCH": "2025-12-21T00:03:32.477472", "MEAN_MOTION": 14.09106793, "ECCENTRICITY": 0.00154568, "INCLINATION": 98.7322, "RA_OF_ASC_NODE": 14.098, "ARG_OF_PERICENTER": 228.5364, "MEAN_ANOMALY": 131.448, "EPHEMERIS_TYPE": 0, "CLASSIFICATION_TYPE": "U", "NORAD_CAT_ID": 30325, "ELEMENT_SET_NO": 999, "REV_AT_EPOCH": 97132, "BSTAR": 9.5424363e-05, "MEAN_MOTION_DOT": 1.23e-06, "MEAN_MOTION_DDOT": 0}, "tle": {"line1": "1 30325U 99025AAL 25355.00245923  .00000123  00000+0  95424-4 0  9996", "line2": "2 30325  98.7322  14.0980 0015456 228.5364 131.4480 14.09106793971322"}}, "geometry": {"type": "Point", "coordinates": [8.339864338760853, 36.752793757685595]}}, {"type": "Feature", "properties": {"norad_id": 30326, "name": "FENGYUN 1C DEB", "group": "fengyun-1c-debris", "lat": -80.15598837797472, "lon": 1.125738525213806, "alt_km": 969.3832134388304, "timestamp": "2025-12-21T20:41:08.236732+00:00", "meta": {"OBJECT_NAME": "FENGYUN 1C DEB", "OBJECT_ID": "1999-025AAM", "EPOCH": "2025-12-21T10:44:10.190688", "MEAN_MOTION": 13.85479089, "ECCENTRICITY": 0.0142044, "INCLINATION": 98.6538, "RA_OF_ASC_NODE": 242.1026, "ARG_OF_PERICENTER": 6.9249, "MEAN_ANOMALY": 353.3828, "EPHEMERIS_TYPE": 0, "CLASSIFICATION_TYPE": "U", "NORAD_CAT_ID": 30326, "ELEMENT_SET_NO": 999, "REV_AT_EPOCH": 95576, "BSTAR": 0.00017897522, "MEAN_MOTION_DOT": 1.81e-06, "MEAN_MOTION_DDOT": 0}, "tle": {"line1": "1 30326U 99025AAM 25355.44734017  .00000181  00000+0  17898-3 0  9994", "line2": "2 30326  98.6538 242.1026 0142044   6.9249 353.3828 13.85479089955765"}}, "geometry": {"type": "Point", "coordinates": [1.125738525213806, -80.15598837797472]}}, {"type": "Feature", "properties": {"norad_id": 30327, "name": "FENGYUN 1C DEB", "group": "fengyun-1c-debris", "lat": 53.58492174212845, "lon": 81.3479083933202, "alt_km": 743.2636592854788, "timestamp": "2025-12-21T20:41:08.236741+00:00", "meta": {"OBJECT_NAME": "FENGYUN 1C DEB", "OBJECT_ID": "1999-025AAN", "EPOCH": "2025-12-19T15:45:09.237024", "MEAN_MOTION": 14.18028637, "ECCENTRICITY": 0.011747, "INCLINATION": 98.4446, "RA_OF_ASC_NODE": 247.6313, "ARG_OF_PERICENTER": 122.698, "MEAN_ANOMALY": 269.8264, "EPHEMERIS_TYPE": 0, "CLASSIFICATION_TYPE": "U", "NORAD_CAT_ID": 30327, "ELEMENT_SET_NO": 999, "REV_AT_EPOCH": 96541, "BSTAR": 0.0012536, "MEAN_MOTION_DOT": 2.71e-05, "MEAN_MOTION_DDOT": 0}, "tle": {"line1": "1 30327U 99025AAN 25353.65635691  .00002710  00000+0  12536-2 0  9997", "line2": "2 30327  98.4446 247.6313 0117470 122.6980 269.8264 14.18028637965418"}}, "geometry": {"type": "Point", "coordinates": [81.3479083933202, 53.58492174212845]}}, {"type": "Feature", "properties": {"norad_id": 30328, "name": "FENGYUN 1C DEB", "group": "fengyun-1c-debris", "lat": 77.40843693166536, "lon": -131.1112179852255, "alt_km": 839.7890523122669, "timestamp": "2025-12-21T20:41:08.236750+00:00", "meta": {"OBJECT_NAME": "FENGYUN 1C DEB", "OBJECT_ID": "1999-025AAP", "EPOCH": "2025-12-20T14:10:49.452960", "MEAN_MOTION": 14.1247742, "ECCENTRICITY": 0.0006107, "INCLINATION": 98.686, "RA_OF_ASC_NODE": 4.471, "ARG_OF_PERICENTER": 132.8034, "MEAN_ANOMALY": 346.7889, "EPHEMERIS_TYPE": 0, "CLASSIFICATION_TYPE": "U", "NORAD_CAT_ID": 30328, "ELEMENT_SET_NO": 999, "REV_AT_EPOCH": 97375, "BSTAR": 8.9621e-05, "MEAN_MOTION_DOT": 1.23e-06, "MEAN_MOTION_DDOT": 0}, "tle": {"line1": "1 30328U 99025AAP 25354.59085015  .00000123  00000+0  89621-4 0  9998", "line2": "2 30328  98.6860   4.4710 0006107 132.8034 346.7889 14.12477420973754"}}, "geometry": {"type": "Point", "coordinates": [-131.1112179852255, 77.40843693166536]}}, {"type": "Feature", "properties": {"norad_id": 30329, "name": "FENGYUN 1C DEB", "group": "fengyun-1c-debris", "lat": 28.600953368275, "lon": -89.95745537207537, "alt_km": 839.4693603063579, "timestamp": "2025-12-21T20:41:08.236759+00:00", "meta": {"OBJECT_NAME": "FENGYUN 1C DEB", "OBJECT_ID": "1999-025AAQ", "EPOCH": "2025-12-21T05:42:33.461856", "MEAN_MOTION": 13.86750488, "ECCENTRICITY": 0.0142167, "INCLINATION": 99.2633, "RA_OF_ASC_NODE": 274.5297, "ARG_OF_PERICENTER": 12.8663, "MEAN_ANOMALY": 142.1577, "EPHEMERIS_TYPE": 0, "CLASSIFICATION_TYPE": "U", "NORAD_CAT_ID": 30329, "ELEMENT_SET_NO": 999, "REV_AT_EPOCH": 95528, "BSTAR": 0.00038592, "MEAN_MOTION_DOT": 4.43e-06, "MEAN_MOTION_DDOT": 0}, "tle": {"line1": "1 30329U 99025AAQ 25355.23788729  .00000443  00000+0  38592-3 0  9998", "line2": "2 30329  99.2633 274.5297 0142167  12.8663 142.1577 13.86750488955280"}}, "geometry": {"type": "Point", "coordinates": [-89.95745537207537, 28.600953368275]}}, {"type": "Feature", "properties": {"norad_id": 30330, "name": "FENGYUN 1C DEB", "group": "fengyun-1c-debris", "lat": -80.85916892271152, "lon": 64.18006800866904, "alt_km": 1013.0994942977723, "timestamp": "2025-12-21T20:41:08.236768+00:00", "meta": {"OBJECT_NAME": "FENGYUN 1C DEB", "OBJECT_ID": "1999-025AAR", "EPOCH": "2025-12-21T11:25:38.635968", "MEAN_MOTION": 13.82083533, "ECCENTRICITY": 0.01877169, "INCLINATION": 98.8863, "RA_OF_ASC_NODE": 347.3349, "ARG_OF_PERICENTER": 161.2046, "MEAN_ANOMALY": 350.615, "EPHEMERIS_TYPE": 0, "CLASSIFICATION_TYPE": "U", "NORAD_CAT_ID": 30330, "ELEMENT_SET_NO": 999, "REV_AT_EPOCH": 94778, "BSTAR": 0.0010264085, "MEAN_MOTION_DOT": 1.223e-05, "MEAN_MOTION_DDOT": 0}, "tle": {"line1": "1 30330U 99025AAR 25355.47614162  .00001223  00000+0  10264-2 0  9997", "line2": "2 30330  98.8863 347.3349 0187716 161.2046 350.6150 13.82083533947787"}}, "geometry": {"type": "Point", "coordinates": [64.18006800866904, -80.85916892271152]}}, {"type": "Feature", "properties": {"norad_id": 30331, "name": "FENGYUN 1C DEB", "group": "fengyun-1c-debris", "lat": -62.74639456191799, "lon": 48.039585431966955, "alt_km": 860.4214070095059, "timestamp": "2025-12-21T20:41:08.236796+00:00", "meta": {"OBJECT_NAME": "FENGYUN 1C DEB", "OBJECT_ID": "1999-025AAS", "EPOCH": "2025-12-21T14:43:48.147744", "MEAN_MOTION": 13.97839954, "ECCENTRICITY": 0.00959616, "INCLINATION": 98.9553, "RA_OF_ASC_NODE": 29.9724, "ARG_OF_PERICENTER": 343.5855, "MEAN_ANOMALY": 145.0577, "EPHEMERIS_TYPE": 0, "CLASSIFICATION_TYPE": "U", "NORAD_CAT_ID": 30331, "ELEMENT_SET_NO": 999, "REV_AT_EPOCH": 96243, "BSTAR": 0.00043060095, "MEAN_MOTION_DOT": 5.9e-06, "MEAN_MOTION_DDOT": 0}, "tle": {"line1": "1 30331U 99025AAS 25355.61375171  .00000590  00000+0  43060-3 0  9995", "line2": "2 30331  98.9553  29.9724 0095961 343.5855 145.0577 13.97839954962438"}}, "geometry": {"type": "Point", "coordinates": [48.039585431966955, -62.74639456191799]}}]}